1 43565U 18060B   18206.84406553 -.00000053  00000-0  00000-0 0  9999
2 43565  56.3070  60.1231 0002619 343.4049   3.1302  1.73202372    33
1 43565U 18060B   18207.44280075 -.00000051  00000-0  00000-0 0  9993
2 43565  56.3058  60.1075 0000814 126.0982 233.9927  1.73297809    58
1 43565U 18060B   18208.01982706 -.00000048  00000-0  00000-0 0  9993
2 43565  56.3132  60.0905 0000689 109.7939 250.2983  1.73299597    63
1 43565U 18060B   18211.47234295 -.00000037  00000-0  00000+0 0  9997
2 43565  56.3112  59.9881 0000657 133.3041 220.8662  1.73304599   115
1 43565U 18060B   18212.05882469 -.00000036  00000-0  00000-0 0  9994
2 43565  56.3163  59.9738 0000563 119.0715 241.0126  1.73304944   133
1 43565U 18060B   18213.78983178 -.00000033  00000-0  00000+0 0  9990
2 43565  56.3174  59.9249 0000627 118.9964 241.1041  1.73305909   169
1 43565U 18060B   18214.36679729 -.00000033  00000-0  00000+0 0  9999
2 43565  56.3178  59.9083 0000627 119.0024 241.0751  1.73305909   176
1 43565U 18060B   18218.70833333 -.00000029  00000-0  00000+0 0  9999
2 43565  56.4124  59.5997 0004244 164.7705   8.7895  1.72091387   246
1 43565U 18060B   18220.00000000 -.00000028  00000-0  00000+0 0  9991
2 43565  56.4096  59.5648 0003866 158.0197  95.8399  1.72115973   263
1 43565U 18060B   18228.88628229 -.00000055  00000-0  00000+0 0  9994
2 43565  56.3416  59.5351 0003437 199.5256 160.2668  1.72104394   428
1 43565U 18060B   18229.46770818 -.00000054  00000-0  00000+0 0  9990
2 43565  56.3416  59.4896 0004252 195.3988 164.6631  1.72104360   435
1 43565U 18060B   18231.79180019 -.00000046  00000-0  00000+0 0  9998
2 43565  56.3443  59.4265 0004274 195.2855 164.7559  1.72104375   471
1 43565U 18060B   18234.11593237 -.00000036  00000-0  00000+0 0  9996
2 43565  56.3458  59.3605 0004340 194.9850 165.0642  1.72104430   513
1 43565U 18060B   18235.27796679 -.00000032  00000-0  00000+0 0  9995
2 43565  56.3473  59.3222 0004365 193.5542 166.4937  1.72105047   534
1 43565U 18060B   18235.85899488 -.00000030  00000-0  00000-0 0  9990
2 43565  56.3478  59.3058 0004372 193.5945 166.4529  1.72105048   540
1 43565U 18060B   18237.02104962 -.00000026  00000-0  00000-0 0  9992
2 43565  56.3487  59.2731 0004400 193.5544 166.4909  1.72105038   567
1 43565U 18060B   18239.92617803 -.00000019  00000-0  00000+0 0  9997
2 43565  56.3509  59.1914 0004456 193.5670 166.4686  1.72105020   614
1 43565U 18060B   18240.50720351 -.00000018  00000-0  00000-0 0  9996
2 43565  56.3514  59.1750 0004476 193.5018 166.5317  1.72105005   622
1 43565U 18060B   18241.66925660 -.00000017  00000-0  00000-0 0  9993
2 43565  56.3523  59.1422 0004499 193.5386 166.4915  1.72104962   647
1 43565U 18060B   18242.25028290 -.00000017  00000-0  00000+0 0  9991
2 43565  56.3528  59.1258 0004527 193.5609 166.4679  1.72104950   654
1 43565U 18060B   18243.41233924 -.00000016  00000-0  00000-0 0  9992
2 43565  56.3537  59.0931 0004540 193.6161 166.4113  1.72104924   676
1 43565U 18060B   18243.99336727 -.00000016  00000-0  00000-0 0  9990
2 43565  56.3542  59.0767 0004564 193.6178 166.4095  1.72104925   684
1 43565U 18060B   18245.73645690 -.00000015  00000-0  00000+0 0  9994
2 43565  56.3556  59.0276 0004604 193.8294 166.1992  1.72104885   712
1 43565U 18060B   18246.31748667 -.00000014  00000-0  00000-0 0  9997
2 43565  56.3560  59.0112 0004634 193.9467 166.0825  1.72104861   721
1 43565U 18060B   18246.89851631 -.00000014  00000-0  00000-0 0  9996
2 43565  56.3565  58.9948 0004648 193.9593 166.0704  1.72104860   732
1 43565U 18060B   18248.06057281 -.00000015  00000-0  00000+0 0  9996
2 43565  56.3574  58.9619 0004668 194.0138 166.0156  1.72104893   755
1 43565U 18060B   18249.22262690 -.00000019  00000-0  00000-0 0  9992
2 43565  56.3583  58.9292 0004697 194.1107 165.9160  1.72104887   779
1 43565U 18060B   18249.22262708 -.00000019  00000-0  00000-0 0  9992
2 43565  56.3583  58.9292 0004709 194.1589 165.8678  1.72104870   772
1 43565U 18060B   18250.38467753 -.00000024  00000-0  00000+0 0  9993
2 43565  56.3592  58.8963 0004731 194.1741 165.8477  1.72104874   794
1 43565U 18060B   18251.54672458 -.00000030  00000-0  00000-0 0  9990
2 43565  56.3601  58.8635 0004762 194.2681 165.7470  1.72104889   810
1 43565U 18060B   18252.12774743 -.00000034  00000-0  00000-0 0  9999
2 43565  56.3606  58.8471 0004793 194.3656 165.6457  1.72104903   822
1 43565U 18060B   18253.87081845 -.00000043  00000-0  00000+0 0  9995
2 43565  56.3620  58.7979 0004843 194.5820 165.4195  1.72104952   855
1 43565U 18060B   18255.03286898 -.00000046  00000-0  00000-0 0  9994
2 43565  56.3629  58.7651 0004878 194.7557 165.2417  1.72105007   877
1 43565U 18060B   18256.19492410 -.00000047  00000-0  00000+0 0  9991
2 43565  56.3638  58.7323 0004907 194.8516 165.1442  1.72105045   893
1 43565U 18060B   18256.77595228 -.00000046  00000-0  00000-0 0  9996
2 43565  56.3643  58.7159 0004923 194.9707 165.0251  1.72105086   901
1 43565U 18060B   18257.93801182 -.00000043  00000-0  00000-0 0  9991
2 43565  56.3653  58.6832 0004964 195.1046 164.8925  1.72105145   926
1 43565U 18060B   18260.26213307 -.00000036  00000-0  00000+0 0  9998
2 43565  56.3671  58.6177 0005026 195.3303 164.6710  1.72105220   964
1 43565U 18060B   18260.84316231 -.00000034  00000-0  00000-0 0  9991
2 43565  56.3675  58.6014 0005040 195.3915 164.6105  1.72105245   979
1 43565U 18060B   18262.58624811 -.00000029  00000-0  00000+0 0  9993
2 43565  56.3688  58.5523 0005072 195.5877 164.4146  1.72105253  1008
1 43565U 18060B   18266.07240406 -.00000021  00000-0  00000-0 0  9998
2 43565  56.3715  58.4542 0005147 196.2862 163.7072  1.72105232  1067
1 43565U 18060B   18266.65342883 -.00000020  00000-0  00000-0 0  9993
2 43565  56.3719  58.4379 0005157 196.3744 163.6170  1.72105226  1072
1 43565U 18060B   18267.81547955 -.00000019  00000-0  00000-0 0  9997
2 43565  56.3727  58.4052 0005168 196.5260 163.4614  1.72105194  1093
1 43565U 18060B   18268.97753045 -.00000018  00000-0  00000-0 0  9993
2 43565  56.3736  58.3725 0005206 196.8229 163.1611  1.72105165  1115
1 43565U 18060B   18268.97753090 -.00000018  00000-0  00000+0 0  9992
2 43565  56.3736  58.3724 0005192 196.7157 163.2684  1.72105175  1119
1 43565U 18060B   18271.30164060 -.00000018  00000-0  00000+0 0  9996
2 43565  56.3753  58.3071 0005257 197.3680 162.6139  1.72105102  1155
1 43565U 18060B   18271.30164060 -.00000018  00000-0  00000-0 0  9997
2 43565  56.3753  58.3071 0005257 197.3680 162.6139  1.72105102  1155
1 43565U 18060B   18271.88266911 -.00000018  00000-0  00000-0 0  9998
2 43565  56.3759  58.2907 0005273 197.5885 162.3937  1.72105102  1169
1 43565U 18060B   18273.62575824 -.00000018  00000-0  00000+0 0  9997
2 43565  56.3772  58.2416 0005296 197.8970 162.0875  1.72105086  1194
1 43565U 18060B   18274.20678780 -.00000018  00000-0  00000-0 0  9998
2 43565  56.3775  58.2252 0005317 198.1374 161.8477  1.72105053  1202
1 43565U 18060B   18275.36884506 -.00000020  00000-0  00000-0 0  9994
2 43565  56.3784  58.1925 0005328 198.2945 161.6908  1.72105058  1229
1 43565U 18060B   18276.53089884 -.00000023  00000-0  00000+0 0  9992
2 43565  56.3792  58.1598 0005352 198.5583 161.4250  1.72105049  1242
1 43565U 18060B   18276.53089884 -.00000023  00000-0  00000-0 0  9993
2 43565  56.3792  58.1598 0005352 198.5583 161.4250  1.72105049  1242
1 43565U 18060B   18277.11192404 -.00000026  00000-0  00000-0 0  9994
2 43565  56.3796  58.1434 0005381 198.7994 161.1817  1.72105038  1250
1 43565U 18060B   18278.27397273 -.00000033  00000-0  00000-0 0  9991
2 43565  56.3805  58.1106 0005407 199.0482 160.9274  1.72105036  1276
1 43565U 18060B   18278.85499529 -.00000037  00000-0  00000+0 0  9995
2 43565  56.3808  58.0942 0005430 199.2251 160.7473  1.72105062  1287
1 43565U 18060B   18280.59806523 -.00000048  00000-0  00000-0 0  9998
2 43565  56.3821  58.0450 0005467 199.5304 160.4327  1.72105109  1319
1 43565U 18060B   18281.17908963 -.00000051  00000-0  00000+0 0  9997
2 43565  56.3826  58.0286 0005478 199.6639 160.2967  1.72105120  1327
1 43565U 18060B   18282.34113978 -.00000055  00000-0  00000-0 0  9996
2 43565  56.3835  57.9958 0005513 200.1172 159.8399  1.72105195  1348
1 43565U 18060B   18283.50319622 -.00000057  00000-0  00000+0 0  9990
2 43565  56.3844  57.9630 0005526 200.2534 159.7032  1.72105204  1368
1 43565U 18060B   18284.08422516 -.00000056  00000-0  00000-0 0  9991
2 43565  56.3848  57.9467 0005550 200.5374 159.4195  1.72105244  1374
1 43565U 18060B   18290.47555385 -.00000042  00000-0  00000+0 0  9996
2 43565  56.3895  57.7666 0005668 202.0114 157.9570  1.72105364  1489
1 43565U 18060B   18291.63761188 -.00000040  00000-0  00000+0 0  9993
2 43565  56.3933  57.7729 0002711 252.7898  73.7913  1.70481872  1507
1 43565U 18060B   18292.86513761 -.00000038  00000-0  00000+0 0  9998
2 43565  56.3904  57.7365 0002923 251.0068 108.9510  1.70477514  1521
1 43565U 18060B   18292.86513761 -.00000038  00000-0  00000-0 0  9999
2 43565  56.3904  57.7365 0002923 251.0068 108.9510  1.70477514  1521
1 43565U 18060B   18294.62487649 -.00000036  00000-0  00000+0 0  9997
2 43565  56.3924  57.6884 0003159 255.7578 104.1929  1.70476956  1551
1 43565U 18060B   18294.62487649 -.00000036  00000-0  00000-0 0  9998
2 43565  56.3924  57.6884 0003159 255.7578 104.1929  1.70476956  1551
1 43565U 18060B   18295.79803152 -.00000036  00000-0  00000-0 0  9998
2 43565  56.3916  57.6550 0003395 256.4824 103.4638  1.70476602  1575
1 43565U 18060B   18295.79804304 -.00000036  00000-0  00000-0 0  9998
2 43565  56.3921  57.6552 0003170 256.1487 103.8001  1.70476817  1572
1 43565U 18060B   18297.55777475 -.00000036  00000-0  00000-0 0  9992
2 43565  56.3933  57.6066 0003258 256.2936 103.6541  1.70476595  1606
1 43565U 18060B   18298.14435320 -.00000036  00000-0  00000-0 0  9998
2 43565  56.3934  57.5902 0003285 256.4934 103.4549  1.70476485  1610
